[{"OBJECT_NAME":"ONEWEB-0327","OBJECT_ID":"2021-083L","EPOCH":"2025-10-07T06:10:40.332864","MEAN_MOTION":13.18685908,"ECCENTRICITY":0.00016048,"INCLINATION":87.9217,"RA_OF_ASC_NODE":25.7046,"ARG_OF_PERICENTER":88.9358,"MEAN_ANOMALY":271.1958,"EPHEMERIS_TYPE":0,"CLASSIFICATION_TYPE":"U","NORAD_CAT_ID":49196,"ELEMENT_SET_NO":999,"REV_AT_EPOCH":19668,"BSTAR":0.00026386589,"MEAN_MOTION_DOT":1.17e-6,"MEAN_MOTION_DDOT":0},{"OBJECT_NAME":"ONEWEB-0328","OBJECT_ID":"2021-083M","EPOCH":"2025-10-07T07:29:00.183552","MEAN_MOTION":13.13470284,"ECCENTRICITY":0.00019895,"INCLINATION":87.9052,"RA_OF_ASC_NODE":10.4457,"ARG_OF_PERICENTER":100.5324,"MEAN_ANOMALY":259.6029,"EPHEMERIS_TYPE":0,"CLASSIFICATION_TYPE":"U","NORAD_CAT_ID":49197,"ELEMENT_SET_NO":999,"REV_AT_EPOCH":19770,"BSTAR":0.00067785462,"MEAN_MOTION_DOT":2.6e-6,"MEAN_MOTION_DDOT":0},{"OBJECT_NAME":"ONEWEB-0331","OBJECT_ID":"2021-083N","EPOCH":"2025-10-07T07:50:37.523616","MEAN_MOTION":13.18686922,"ECCENTRICITY":0.00019488,"INCLINATION":87.9227,"RA_OF_ASC_NODE":25.6586,"ARG_OF_PERICENTER":90.0123,"MEAN_ANOMALY":270.1232,"EPHEMERIS_TYPE":0,"CLASSIFICATION_TYPE":"U","NORAD_CAT_ID":49198,"ELEMENT_SET_NO":999,"REV_AT_EPOCH":19668,"BSTAR":0.00049541609,"MEAN_MOTION_DOT":2.08e-6,"MEAN_MOTION_DDOT":0},{"OBJECT_NAME":"ONEWEB-0333","OBJECT_ID":"2021-083P","EPOCH":"2025-10-07T07:21:41.281920","MEAN_MOTION":13.13469736,"ECCENTRICITY":0.00017467,"INCLINATION":87.9034,"RA_OF_ASC_NODE":10.5108,"ARG_OF_PERICENTER":101.9667,"MEAN_ANOMALY":258.1658,"EPHEMERIS_TYPE":0,"CLASSIFICATION_TYPE":"U","NORAD_CAT_ID":49199,"ELEMENT_SET_NO":999,"REV_AT_EPOCH":19771,"BSTAR":0.00058021135,"MEAN_MOTION_DOT":2.25e-6,"MEAN_MOTION_DDOT":0},{"OBJECT_NAME":"ONEWEB-0334","OBJECT_ID":"2021-083Q","EPOCH":"2025-10-07T04:34:27.261984","MEAN_MOTION":13.20773216,"ECCENTRICITY":0.00015585,"INCLINATION":87.9226,"RA_OF_ASC_NODE":324.9172,"ARG_OF_PERICENTER":129.6401,"MEAN_ANOMALY":230.487,"EPHEMERIS_TYPE":0,"CLASSIFICATION_TYPE":"U","NORAD_CAT_ID":49200,"ELEMENT_SET_NO":999,"REV_AT_EPOCH":20339,"BSTAR":-0.00038242362,"MEAN_MOTION_DOT":-1.43e-6,"MEAN_MOTION_DDOT":0},{"OBJECT_NAME":"ONEWEB-0335","OBJECT_ID":"2021-083R","EPOCH":"2025-10-07T07:14:22.302528","MEAN_MOTION":13.13469766,"ECCENTRICITY":0.0001855,"INCLINATION":87.9037,"RA_OF_ASC_NODE":10.4992,"ARG_OF_PERICENTER":94.6814,"MEAN_ANOMALY":265.4527,"EPHEMERIS_TYPE":0,"CLASSIFICATION_TYPE":"U","NORAD_CAT_ID":49201,"ELEMENT_SET_NO":999,"REV_AT_EPOCH":19772,"BSTAR":0.00012706889,"MEAN_MOTION_DOT":5.9e-7,"MEAN_MOTION_DDOT":0},{"OBJECT_NAME":"ONEWEB-0336","OBJECT_ID":"2021-083S","EPOCH":"2025-10-07T06:32:55.506624","MEAN_MOTION":13.13467691,"ECCENTRICITY":0.0002124,"INCLINATION":87.9042,"RA_OF_ASC_NODE":10.4992,"ARG_OF_PERICENTER":88.6866,"MEAN_ANOMALY":271.4506,"EPHEMERIS_TYPE":0,"CLASSIFICATION_TYPE":"U","NORAD_CAT_ID":49202,"ELEMENT_SET_NO":999,"REV_AT_EPOCH":19771,"BSTAR":-0.00024057495,"MEAN_MOTION_DOT":-7.5e-7,"MEAN_MOTION_DDOT":0},{"OBJECT_NAME":"ONEWEB-0337","OBJECT_ID":"2021-083T","EPOCH":"2025-10-07T06:47:21.687360","MEAN_MOTION":13.13469858,"ECCENTRICITY":0.00020168,"INCLINATION":87.9051,"RA_OF_ASC_NODE":10.5037,"ARG_OF_PERICENTER":98.4155,"MEAN_ANOMALY":261.7202,"EPHEMERIS_TYPE":0,"CLASSIFICATION_TYPE":"U","NORAD_CAT_ID":49203,"ELEMENT_SET_NO":999,"REV_AT_EPOCH":19771,"BSTAR":-0.00094082788,"MEAN_MOTION_DOT":-3.31e-6,"MEAN_MOTION_DDOT":0},{"OBJECT_NAME":"ONEWEB-0338","OBJECT_ID":"2021-083U","EPOCH":"2025-10-07T03:58:08.178816","MEAN_MOTION":13.20771027,"ECCENTRICITY":0.00018051,"INCLINATION":87.9234,"RA_OF_ASC_NODE":324.9226,"ARG_OF_PERICENTER":105.3875,"MEAN_ANOMALY":254.7458,"EPHEMERIS_TYPE":0,"CLASSIFICATION_TYPE":"U","NORAD_CAT_ID":49204,"ELEMENT_SET_NO":999,"REV_AT_EPOCH":20341,"BSTAR":-3.1570148e-5,"MEAN_MOTION_DOT":0,"MEAN_MOTION_DDOT":0},{"OBJECT_NAME":"ONEWEB-0339","OBJECT_ID":"2021-083V","EPOCH":"2025-10-07T06:59:44.748096","MEAN_MOTION":13.13470957,"ECCENTRICITY":0.00018822,"INCLINATION":87.9046,"RA_OF_ASC_NODE":10.4856,"ARG_OF_PERICENTER":105.1677,"MEAN_ANOMALY":254.9661,"EPHEMERIS_TYPE":0,"CLASSIFICATION_TYPE":"U","NORAD_CAT_ID":49205,"ELEMENT_SET_NO":999,"REV_AT_EPOCH":19769,"BSTAR":-0.0003016883,"MEAN_MOTION_DOT":-9.7e-7,"MEAN_MOTION_DDOT":0},{"OBJECT_NAME":"ONEWEB-0340","OBJECT_ID":"2021-083W","EPOCH":"2025-10-07T07:31:38.029440","MEAN_MOTION":13.18686544,"ECCENTRICITY":0.00017738,"INCLINATION":87.9226,"RA_OF_ASC_NODE":25.6653,"ARG_OF_PERICENTER":97.9181,"MEAN_ANOMALY":262.2152,"EPHEMERIS_TYPE":0,"CLASSIFICATION_TYPE":"U","NORAD_CAT_ID":49206,"ELEMENT_SET_NO":999,"REV_AT_EPOCH":19664,"BSTAR":-7.0640873e-5,"MEAN_MOTION_DOT":-1.5e-7,"MEAN_MOTION_DDOT":0},{"OBJECT_NAME":"ONEWEB-0341","OBJECT_ID":"2021-083X","EPOCH":"2025-10-07T07:41:07.759680","MEAN_MOTION":13.18686787,"ECCENTRICITY":0.00023318,"INCLINATION":87.9227,"RA_OF_ASC_NODE":25.677,"ARG_OF_PERICENTER":101.4199,"MEAN_ANOMALY":258.7196,"EPHEMERIS_TYPE":0,"CLASSIFICATION_TYPE":"U","NORAD_CAT_ID":49207,"ELEMENT_SET_NO":999,"REV_AT_EPOCH":19666,"BSTAR":-2.4691518e-5,"MEAN_MOTION_DOT":3.0e-8,"MEAN_MOTION_DDOT":0},{"OBJECT_NAME":"ONEWEB-0342","OBJECT_ID":"2021-083Y","EPOCH":"2025-10-07T02:18:06.087456","MEAN_MOTION":13.20773564,"ECCENTRICITY":0.00018474,"INCLINATION":87.923,"RA_OF_ASC_NODE":324.9047,"ARG_OF_PERICENTER":100.4274,"MEAN_ANOMALY":259.7067,"EPHEMERIS_TYPE":0,"CLASSIFICATION_TYPE":"U","NORAD_CAT_ID":49208,"ELEMENT_SET_NO":999,"REV_AT_EPOCH":20337,"BSTAR":-0.00011047377,"MEAN_MOTION_DOT":-3.2e-7,"MEAN_MOTION_DDOT":0},{"OBJECT_NAME":"ONEWEB-0343","OBJECT_ID":"2021-083Z","EPOCH":"2025-10-04T17:41:19.129344","MEAN_MOTION":13.18241409,"ECCENTRICITY":0.00016485,"INCLINATION":87.9216,"RA_OF_ASC_NODE":26.1742,"ARG_OF_PERICENTER":116.0362,"MEAN_ANOMALY":244.0939,"EPHEMERIS_TYPE":0,"CLASSIFICATION_TYPE":"U","NORAD_CAT_ID":49209,"ELEMENT_SET_NO":999,"REV_AT_EPOCH":19637,"BSTAR":-0.1133553,"MEAN_MOTION_DOT":-0.00044171,"MEAN_MOTION_DDOT":0},{"OBJECT_NAME":"ONEWEB-0344","OBJECT_ID":"2021-083AA","EPOCH":"2025-10-07T06:52:25.576896","MEAN_MOTION":13.13470254,"ECCENTRICITY":0.00022278,"INCLINATION":87.904,"RA_OF_ASC_NODE":10.5238,"ARG_OF_PERICENTER":100.4763,"MEAN_ANOMALY":259.6617,"EPHEMERIS_TYPE":0,"CLASSIFICATION_TYPE":"U","NORAD_CAT_ID":49210,"ELEMENT_SET_NO":999,"REV_AT_EPOCH":19769,"BSTAR":-0.00057878478,"MEAN_MOTION_DOT":-1.99e-6,"MEAN_MOTION_DDOT":0},{"OBJECT_NAME":"ONEWEB-0345","OBJECT_ID":"2021-083AB","EPOCH":"2025-10-07T06:40:15.115872","MEAN_MOTION":13.13469788,"ECCENTRICITY":0.00022242,"INCLINATION":87.9043,"RA_OF_ASC_NODE":10.4797,"ARG_OF_PERICENTER":102.2534,"MEAN_ANOMALY":257.8844,"EPHEMERIS_TYPE":0,"CLASSIFICATION_TYPE":"U","NORAD_CAT_ID":49211,"ELEMENT_SET_NO":999,"REV_AT_EPOCH":19770,"BSTAR":-0.00070027248,"MEAN_MOTION_DOT":-2.43e-6,"MEAN_MOTION_DDOT":0}]
