ONEWEB-0327             
1 49196U 21083L   25280.25741126  .00000117  00000+0  26387-3 0  9995
2 49196  87.9217  25.7046 0001604  88.9358 271.1958 13.18685908196683
ONEWEB-0328             
1 49197U 21083M   25280.31180768  .00000260  00000+0  67785-3 0  9998
2 49197  87.9052  10.4457 0001989 100.5324 259.6029 13.13470284197706
ONEWEB-0331             
1 49198U 21083N   25280.32682319  .00000208  00000+0  49542-3 0  9992
2 49198  87.9227  25.6586 0001948  90.0123 270.1232 13.18686922196680
ONEWEB-0333             
1 49199U 21083P   25280.30672780  .00000225  00000+0  58021-3 0  9993
2 49199  87.9034  10.5108 0001746 101.9667 258.1658 13.13469736197711
ONEWEB-0334             
1 49200U 21083Q   25280.19059331 -.00000143  00000+0 -38242-3 0  9998
2 49200  87.9226 324.9172 0001558 129.6401 230.4870 13.20773216203394
ONEWEB-0335             
1 49201U 21083R   25280.30164702  .00000059  00000+0  12707-3 0  9993
2 49201  87.9037  10.4992 0001855  94.6814 265.4527 13.13469766197721
ONEWEB-0336             
1 49202U 21083S   25280.27286466 -.00000075  00000+0 -24057-3 0  9993
2 49202  87.9042  10.4992 0002124  88.6866 271.4506 13.13467691197716
ONEWEB-0337             
1 49203U 21083T   25280.28288990 -.00000331  00000+0 -94083-3 0  9990
2 49203  87.9051  10.5037 0002016  98.4155 261.7202 13.13469858197710
ONEWEB-0338             
1 49204U 21083U   25280.16537244  .00000000  00000+0 -31570-4 0  9992
2 49204  87.9234 324.9226 0001805 105.3875 254.7458 13.20771027203410
ONEWEB-0339             
1 49205U 21083V   25280.29149014 -.00000097  00000+0 -30169-3 0  9990
2 49205  87.9046  10.4856 0001882 105.1677 254.9661 13.13470957197691
ONEWEB-0340             
1 49206U 21083W   25280.31363460 -.00000015  00000+0 -70641-4 0  9997
2 49206  87.9226  25.6653 0001773  97.9181 262.2152 13.18686544196649
ONEWEB-0341             
1 49207U 21083X   25280.32022870  .00000003  00000+0 -24692-4 0  9997
2 49207  87.9227  25.6770 0002331 101.4199 258.7196 13.18686787196661
ONEWEB-0342             
1 49208U 21083Y   25280.09590379 -.00000032  00000+0 -11047-3 0  9998
2 49208  87.9230 324.9047 0001847 100.4274 259.7067 13.20773564203370
ONEWEB-0343             
1 49209U 21083Z   25277.73702696 -.00044171  00000+0 -11336+0 0  9992
2 49209  87.9216  26.1742 0001648 116.0362 244.0939 13.18241409196379
ONEWEB-0344             
1 49210U 21083AA  25280.28640714 -.00000199  00000+0 -57878-3 0  9997
2 49210  87.9040  10.5238 0002227 100.4763 259.6617 13.13470254197697
ONEWEB-0345             
1 49211U 21083AB  25280.27795273 -.00000243  00000+0 -70027-3 0  9999
2 49211  87.9043  10.4797 0002224 102.2534 257.8844 13.13469788197707
